STARLINK-1533
1 16069C 20055AU  21326.15103706 -.00023050  00000-0 -15440-2 0  3266
2 16069  53.0533 298.0627 0001904  62.7635 239.0244 15.06430306    16
